[{"OBJECT_NAME":"RAPTOR1","OBJECT_ID":"2024-028C","EPOCH":"2026-03-09T12:42:01.746432","MEAN_MOTION":13.70310646,"ECCENTRICITY":0.0011567,"INCLINATION":39.9898,"RA_OF_ASC_NODE":141.7891,"ARG_OF_PERICENTER":33.7881,"MEAN_ANOMALY":326.3601,"EPHEMERIS_TYPE":0,"CLASSIFICATION_TYPE":"U","NORAD_CAT_ID":58957,"ELEMENT_SET_NO":999,"REV_AT_EPOCH":10338,"BSTAR":4.5249e-5,"MEAN_MOTION_DOT":-3.8e-7,"MEAN_MOTION_DDOT":0},{"OBJECT_NAME":"COSMOS 2142","OBJECT_ID":"1991-029A","EPOCH":"2026-03-09T17:29:59.315136","MEAN_MOTION":13.73369179,"ECCENTRICITY":0.0038981,"INCLINATION":82.9568,"RA_OF_ASC_NODE":312.1988,"ARG_OF_PERICENTER":123.8889,"MEAN_ANOMALY":296.8629,"EPHEMERIS_TYPE":0,"CLASSIFICATION_TYPE":"U","NORAD_CAT_ID":21230,"ELEMENT_SET_NO":999,"REV_AT_EPOCH":74870,"BSTAR":4.958341e-5,"MEAN_MOTION_DOT":6.2e-7,"MEAN_MOTION_DDOT":0}]
